SL-14 R/B               
1 16792U 86046B   26064.56395302  .00000645  00000+0  71559-4 0  9995
2 16792  82.4782  84.0813 0021742 239.7797 120.1266 14.85585893125790
SL-14 R/B               
1 16882U 86055B   26064.70602933  .00000634  00000+0  70193-4 0  9993
2 16882  82.5209 130.4184 0018530 350.0678 133.4923 14.85638740118775
AJISAI (EGS)            
1 16908U 86061A   26064.79004931 -.00000081  00000+0  11784-3 0  9999
2 16908  50.0080 105.3396 0011256 277.0009 195.3478 12.44515600467514
COSMOS 1812             
1 17295U 87003A   26064.82650429  .06624094 -12637-5  33220-3 0  9995
2 17295  82.4635 199.9568 0010805 275.1619  84.8448 16.41837431143862
SL-14 R/B               
1 17567U 87024B   26064.59886053  .00000615  00000+0  67260-4 0  9995
2 17567  82.5250  96.6097 0016679 274.7491  85.1820 14.86127704 87526
COSMOS 1833             
1 17589U 87027A   26064.18816241 -.00000132  00000+0 -44565-4 0  9998
2 17589  70.9232 335.4791 0024479 220.7927 139.1362 14.13055825  9684
SL-16 R/B               
1 17590U 87027B   26064.66896878 -.00000145  00000+0 -48363-4 0  9991
2 17590  71.0014 284.9684 0003607 151.5363 208.5959 14.17165907 14776
SL-14 R/B               
1 17912U 87038B   26064.72645989  .00000610  00000+0  67928-4 0  9996
2 17912  82.5008 300.5415 0019343 173.2963 186.8516 14.85365418 78649
COSMOS 1844             
1 17973U 87041A   26064.36954211 -.00000092  00000+0 -22809-4 0  9993
2 17973  70.8996  43.2872 0029763  24.3038 335.9480 14.14553146  2975
SL-14 R/B               
1 18153U 87055B   26064.50203623  .00000820  00000+0  91608-4 0  9999
2 18153  82.5029 352.9768 0021508  31.2603 328.9887 14.85623784 69319
COSMOS 1867             
1 18187U 87060A   26064.10985379  .00000010  00000+0  41241-4 0  9992
2 18187  65.0117 319.5309 0014418 278.3689  81.5761 14.31502252 19281
SL-14 R/B               
1 18749U 88001B   26064.63175702  .00000851  00000+0  95575-4 0  9993
2 18749  82.5146 199.1758 0016668 250.2080 109.7339 14.85522157 41424
