CCSDS_OMM_VERS = 2.0
CREATION_DATE  = 
ORIGINATOR     = 

OBJECT_NAME    = SL-14 R/B
OBJECT_ID      = 1986-046B
CENTER_NAME    = EARTH
REF_FRAME      = TEME
TIME_SYSTEM    = UTC
MEAN_ELEMENT_THEORY = SGP/SGP4

EPOCH          = 2026-03-05T13:32:05.540928
MEAN_MOTION    = 14.85585893
ECCENTRICITY   = .0021742
INCLINATION    = 82.4782
RA_OF_ASC_NODE = 84.0813
ARG_OF_PERICENTER = 239.7797
MEAN_ANOMALY   = 120.1266

EPHEMERIS_TYPE = 0
CLASSIFICATION_TYPE = U
NORAD_CAT_ID   = 16792
ELEMENT_SET_NO = 999
REV_AT_EPOCH   = 12579
BSTAR          = .71559E-4
MEAN_MOTION_DOT = .645E-5
MEAN_MOTION_DDOT = 0

CCSDS_OMM_VERS = 2.0
CREATION_DATE  = 
ORIGINATOR     = 

OBJECT_NAME    = SL-14 R/B
OBJECT_ID      = 1986-055B
CENTER_NAME    = EARTH
REF_FRAME      = TEME
TIME_SYSTEM    = UTC
MEAN_ELEMENT_THEORY = SGP/SGP4

EPOCH          = 2026-03-05T16:56:40.934112
MEAN_MOTION    = 14.85638740
ECCENTRICITY   = .001853
INCLINATION    = 82.5209
RA_OF_ASC_NODE = 130.4184
ARG_OF_PERICENTER = 350.0678
MEAN_ANOMALY   = 133.4923

EPHEMERIS_TYPE = 0
CLASSIFICATION_TYPE = U
NORAD_CAT_ID   = 16882
ELEMENT_SET_NO = 999
REV_AT_EPOCH   = 11877
BSTAR          = .70193E-4
MEAN_MOTION_DOT = .634E-5
MEAN_MOTION_DDOT = 0

CCSDS_OMM_VERS = 2.0
CREATION_DATE  = 
ORIGINATOR     = 

OBJECT_NAME    = AJISAI (EGS)
OBJECT_ID      = 1986-061A
CENTER_NAME    = EARTH
REF_FRAME      = TEME
TIME_SYSTEM    = UTC
MEAN_ELEMENT_THEORY = SGP/SGP4

EPOCH          = 2026-03-05T18:57:40.260384
MEAN_MOTION    = 12.44515600
ECCENTRICITY   = .0011256
INCLINATION    = 50.0080
RA_OF_ASC_NODE = 105.3396
ARG_OF_PERICENTER = 277.0009
MEAN_ANOMALY   = 195.3478

EPHEMERIS_TYPE = 0
CLASSIFICATION_TYPE = U
NORAD_CAT_ID   = 16908
ELEMENT_SET_NO = 999
REV_AT_EPOCH   = 46751
BSTAR          = .11784E-3
MEAN_MOTION_DOT = -.81E-6
MEAN_MOTION_DDOT = 0

CCSDS_OMM_VERS = 2.0
CREATION_DATE  = 
ORIGINATOR     = 

OBJECT_NAME    = COSMOS 1812
OBJECT_ID      = 1987-003A
CENTER_NAME    = EARTH
REF_FRAME      = TEME
TIME_SYSTEM    = UTC
MEAN_ELEMENT_THEORY = SGP/SGP4

EPOCH          = 2026-03-05T19:50:09.970656
MEAN_MOTION    = 16.41837431
ECCENTRICITY   = .0010805
INCLINATION    = 82.4635
RA_OF_ASC_NODE = 199.9568
ARG_OF_PERICENTER = 275.1619
MEAN_ANOMALY   = 84.8448

EPHEMERIS_TYPE = 0
CLASSIFICATION_TYPE = U
NORAD_CAT_ID   = 17295
ELEMENT_SET_NO = 999
REV_AT_EPOCH   = 14386
BSTAR          = .3322E-3
MEAN_MOTION_DOT = .6624094E-1
MEAN_MOTION_DDOT = -.12637E-5

CCSDS_OMM_VERS = 2.0
CREATION_DATE  = 
ORIGINATOR     = 

OBJECT_NAME    = SL-14 R/B
OBJECT_ID      = 1987-024B
CENTER_NAME    = EARTH
REF_FRAME      = TEME
TIME_SYSTEM    = UTC
MEAN_ELEMENT_THEORY = SGP/SGP4

EPOCH          = 2026-03-05T14:22:21.549792
MEAN_MOTION    = 14.86127704
ECCENTRICITY   = .0016679
INCLINATION    = 82.5250
RA_OF_ASC_NODE = 96.6097
ARG_OF_PERICENTER = 274.7491
MEAN_ANOMALY   = 85.1820

EPHEMERIS_TYPE = 0
CLASSIFICATION_TYPE = U
NORAD_CAT_ID   = 17567
ELEMENT_SET_NO = 999
REV_AT_EPOCH   = 8752
BSTAR          = .6726E-4
MEAN_MOTION_DOT = .615E-5
MEAN_MOTION_DDOT = 0

CCSDS_OMM_VERS = 2.0
CREATION_DATE  = 
ORIGINATOR     = 

OBJECT_NAME    = COSMOS 1833
OBJECT_ID      = 1987-027A
CENTER_NAME    = EARTH
REF_FRAME      = TEME
TIME_SYSTEM    = UTC
MEAN_ELEMENT_THEORY = SGP/SGP4

EPOCH          = 2026-03-05T04:30:57.232224
MEAN_MOTION    = 14.13055825
ECCENTRICITY   = .0024479
INCLINATION    = 70.9232
RA_OF_ASC_NODE = 335.4791
ARG_OF_PERICENTER = 220.7927
MEAN_ANOMALY   = 139.1362

EPHEMERIS_TYPE = 0
CLASSIFICATION_TYPE = U
NORAD_CAT_ID   = 17589
ELEMENT_SET_NO = 999
REV_AT_EPOCH   = 968
BSTAR          = -.44565E-4
MEAN_MOTION_DOT = -.132E-5
MEAN_MOTION_DDOT = 0

CCSDS_OMM_VERS = 2.0
CREATION_DATE  = 
ORIGINATOR     = 

OBJECT_NAME    = SL-16 R/B
OBJECT_ID      = 1987-027B
CENTER_NAME    = EARTH
REF_FRAME      = TEME
TIME_SYSTEM    = UTC
MEAN_ELEMENT_THEORY = SGP/SGP4

EPOCH          = 2026-03-05T16:03:18.902592
MEAN_MOTION    = 14.17165907
ECCENTRICITY   = .0003607
INCLINATION    = 71.0014
RA_OF_ASC_NODE = 284.9684
ARG_OF_PERICENTER = 151.5363
MEAN_ANOMALY   = 208.5959

EPHEMERIS_TYPE = 0
CLASSIFICATION_TYPE = U
NORAD_CAT_ID   = 17590
ELEMENT_SET_NO = 999
REV_AT_EPOCH   = 1477
BSTAR          = -.48363E-4
MEAN_MOTION_DOT = -.145E-5
MEAN_MOTION_DDOT = 0

CCSDS_OMM_VERS = 2.0
CREATION_DATE  = 
ORIGINATOR     = 

OBJECT_NAME    = SL-14 R/B
OBJECT_ID      = 1987-038B
CENTER_NAME    = EARTH
REF_FRAME      = TEME
TIME_SYSTEM    = UTC
MEAN_ELEMENT_THEORY = SGP/SGP4

EPOCH          = 2026-03-05T17:26:06.134496
MEAN_MOTION    = 14.85365418
ECCENTRICITY   = .0019343
INCLINATION    = 82.5008
RA_OF_ASC_NODE = 300.5415
ARG_OF_PERICENTER = 173.2963
MEAN_ANOMALY   = 186.8516

EPHEMERIS_TYPE = 0
CLASSIFICATION_TYPE = U
NORAD_CAT_ID   = 17912
ELEMENT_SET_NO = 999
REV_AT_EPOCH   = 7864
BSTAR          = .67928E-4
MEAN_MOTION_DOT = .61E-5
MEAN_MOTION_DDOT = 0

CCSDS_OMM_VERS = 2.0
CREATION_DATE  = 
ORIGINATOR     = 

OBJECT_NAME    = COSMOS 1844
OBJECT_ID      = 1987-041A
CENTER_NAME    = EARTH
REF_FRAME      = TEME
TIME_SYSTEM    = UTC
MEAN_ELEMENT_THEORY = SGP/SGP4

EPOCH          = 2026-03-05T08:52:08.438304
MEAN_MOTION    = 14.14553146
ECCENTRICITY   = .0029763
INCLINATION    = 70.8996
RA_OF_ASC_NODE = 43.2872
ARG_OF_PERICENTER = 24.3038
MEAN_ANOMALY   = 335.9480

EPHEMERIS_TYPE = 0
CLASSIFICATION_TYPE = U
NORAD_CAT_ID   = 17973
ELEMENT_SET_NO = 999
REV_AT_EPOCH   = 297
BSTAR          = -.22809E-4
MEAN_MOTION_DOT = -.92E-6
MEAN_MOTION_DDOT = 0

CCSDS_OMM_VERS = 2.0
CREATION_DATE  = 
ORIGINATOR     = 

OBJECT_NAME    = SL-14 R/B
OBJECT_ID      = 1987-055B
CENTER_NAME    = EARTH
REF_FRAME      = TEME
TIME_SYSTEM    = UTC
MEAN_ELEMENT_THEORY = SGP/SGP4

EPOCH          = 2026-03-05T12:02:55.930272
MEAN_MOTION    = 14.85623784
ECCENTRICITY   = .0021508
INCLINATION    = 82.5029
RA_OF_ASC_NODE = 352.9768
ARG_OF_PERICENTER = 31.2603
MEAN_ANOMALY   = 328.9887

EPHEMERIS_TYPE = 0
CLASSIFICATION_TYPE = U
NORAD_CAT_ID   = 18153
ELEMENT_SET_NO = 999
REV_AT_EPOCH   = 6931
BSTAR          = .91608E-4
MEAN_MOTION_DOT = .82E-5
MEAN_MOTION_DDOT = 0

CCSDS_OMM_VERS = 2.0
CREATION_DATE  = 
ORIGINATOR     = 

OBJECT_NAME    = COSMOS 1867
OBJECT_ID      = 1987-060A
CENTER_NAME    = EARTH
REF_FRAME      = TEME
TIME_SYSTEM    = UTC
MEAN_ELEMENT_THEORY = SGP/SGP4

EPOCH          = 2026-03-05T02:38:11.367456
MEAN_MOTION    = 14.31502252
ECCENTRICITY   = .00144182
INCLINATION    = 65.0117
RA_OF_ASC_NODE = 319.5309
ARG_OF_PERICENTER = 278.3689
MEAN_ANOMALY   = 81.5761

EPHEMERIS_TYPE = 0
CLASSIFICATION_TYPE = U
NORAD_CAT_ID   = 18187
ELEMENT_SET_NO = 999
REV_AT_EPOCH   = 1928
BSTAR          = .41240629E-4
MEAN_MOTION_DOT = .1E-6
MEAN_MOTION_DDOT = 0

CCSDS_OMM_VERS = 2.0
CREATION_DATE  = 
ORIGINATOR     = 

OBJECT_NAME    = SL-14 R/B
OBJECT_ID      = 1988-001B
CENTER_NAME    = EARTH
REF_FRAME      = TEME
TIME_SYSTEM    = UTC
MEAN_ELEMENT_THEORY = SGP/SGP4

EPOCH          = 2026-03-05T15:09:43.806528
MEAN_MOTION    = 14.85522157
ECCENTRICITY   = .0016668
INCLINATION    = 82.5146
RA_OF_ASC_NODE = 199.1758
ARG_OF_PERICENTER = 250.2080
MEAN_ANOMALY   = 109.7339

EPHEMERIS_TYPE = 0
CLASSIFICATION_TYPE = U
NORAD_CAT_ID   = 18749
ELEMENT_SET_NO = 999
REV_AT_EPOCH   = 4142
BSTAR          = .95575E-4
MEAN_MOTION_DOT = .851E-5
MEAN_MOTION_DDOT = 0

